OBJECT_NAME,OBJECT_ID,EPOCH,MEAN_MOTION,ECCENTRICITY,INCLINATION,RA_OF_ASC_NODE,ARG_OF_PERICENTER,MEAN_ANOMALY,EPHEMERIS_TYPE,CLASSIFICATION_TYPE,NORAD_CAT_ID,ELEMENT_SET_NO,REV_AT_EPOCH,BSTAR,MEAN_MOTION_DOT,MEAN_MOTION_DDOT
COSMOS 2058,1990-010A,2026-07-09T05:43:01.040736,15.12138882,.00078801,82.4673,287.6085,275.4642,84.5689,0,U,20465,999,96060,.91435064E-4,.1606E-4,0
SL-14 R/B,1990-010B,2026-07-08T22:50:42.172800,14.83660547,.00181721,82.5030,153.5050,259.4978,100.4189,0,U,20466,999,94646,.29995924E-4,.272E-5,0
SL-14 R/B,1990-018B,2026-07-09T05:18:55.427904,14.82231639,.00174122,82.5223,109.5139,55.2414,305.0437,0,U,20511,999,94058,.32342137E-4,.282E-5,0
HST,1990-037B,2026-07-08T17:18:38.370816,15.31013397,.0001994,28.4736,293.3726,41.8079,318.2669,0,U,20580,999,79187,.15028511E-3,.4866E-4,0
SL-16 R/B,1990-046B,2026-07-09T00:05:31.331040,14.15022786,.0012487,70.9983,43.1285,125.2782,234.9511,0,U,20625,999,86555,-.1418481E-5,-.5E-6,0
COSMOS 2084,1990-055A,2026-07-09T05:40:24.314592,15.06210349,.00073697,62.7905,280.8289,312.2608,47.7867,0,U,20663,999,95462,.95316365E-4,.1201E-4,0
SL-6 R/B(2),1990-055D,2026-07-09T01:20:48.016320,15.04071660,.0044152,62.7798,200.9544,8.1644,352.0164,0,U,20666,999,95644,.99644008E-4,.1205E-4,0
SL-8 R/B,1990-078B,2026-07-08T21:52:07.419936,14.93408823,.03445479,82.9023,141.9992,324.9410,32.9553,0,U,20775,999,82736,.46254958E-3,.16326E-3,0
SL-8 R/B,1991-006B,2026-07-09T03:55:09.140736,13.77508388,.0023696,82.9417,79.6847,56.5740,97.0694,0,U,21088,999,78079,.41523033E-4,.57E-6,0
OKEAN-3,1991-039A,2026-07-09T08:09:15.744384,15.05416037,.00119976,82.5137,218.8978,276.7228,83.2633,0,U,21397,999,88333,.97008844E-4,.1421E-4,0
COSMOS 2151,1991-042A,2026-07-09T08:00:02.480256,15.00503417,.00125475,82.4976,326.3074,15.2376,344.9223,0,U,21422,999,88143,.10480554E-3,.1349E-4,0
SL-14 R/B,1991-042B,2026-07-09T05:35:04.181856,14.81916022,.00164491,82.4936,106.2231,196.7222,163.3452,0,U,21423,999,87107,.27279112E-4,.24E-5,0
ERS-1,1991-050A,2026-07-09T01:25:52.148640,14.39530153,.00315134,98.7795,211.2917,200.0921,159.9027,0,U,21574,999,83319,.64266281E-4,.155E-5,0
ARIANE 40 R/B,1991-050F,2026-07-08T18:04:34.932576,14.42969614,.000437,98.1864,237.3288,75.3560,284.8115,0,U,21610,999,83645,.67634777E-4,.185E-5,0
INTERCOSMOS 25,1991-086A,2026-07-09T03:35:57.704352,12.12233409,.14842768,82.6018,236.5193,214.9742,134.4497,0,U,21819,999,51140,.22158777E-3,.1125E-4,0
SL-8 R/B,1992-008B,2026-07-08T22:25:05.128032,13.75982387,.00353105,82.9265,177.6181,153.7197,234.2118,0,U,21876,999,72609,.1159836E-3,.128E-5,0
SL-8 R/B,1992-020B,2026-07-09T02:42:11.421216,13.75550322,.00282313,82.9291,63.5702,321.2174,191.9018,0,U,21938,999,71782,.7612055E-5,.22E-6,0
USA 81,1992-023A,2026-07-09T01:40:44.220864,14.32403814,.00022478,85.0057,61.3757,67.3828,292.7602,0,U,21949,999,11216,.31474557E-4,.105E-5,0
COSMOS 2219,1992-076A,2026-07-09T06:15:18.546912,14.14110057,.00178747,71.0616,123.9288,6.9103,353.2263,0,U,22219,999,73556,-.20471525E-4,-.86E-6,0
SL-16 R/B,1992-076B,2026-07-09T07:55:47.591616,14.16874801,.00149796,71.0008,292.1355,269.5783,106.8493,0,U,22220,999,73906,.10868926E-3,.17E-5,0
COSMOS 2221,1992-080A,2026-07-08T22:27:44.669952,14.96592175,.0015317,82.5039,162.9268,139.4809,220.7557,0,U,22236,999,79892,.10188819E-3,.1189E-4,0
SL-16 R/B,1992-093B,2026-07-09T05:17:42.982368,14.15467051,.00026089,71.0224,109.1374,148.1428,211.9853,0,U,22285,999,73035,.2641667E-5,-.42E-6,0
COSMOS 2228,1992-094A,2026-07-09T06:28:45.857280,14.97664104,.00160476,82.5190,120.8912,251.0026,108.9458,0,U,22286,999,79425,.11020664E-3,.1319E-4,0
SL-16 R/B,1993-016B,2026-07-08T18:41:42.166464,14.15311610,.00090553,71.0084,320.8564,149.5406,210.6245,0,U,22566,999,71930,-.44164275E-4,-.134E-5,0
COSMOS 2242,1993-024A,2026-07-09T07:21:13.200192,14.96973477,.00143879,82.5195,150.3803,254.5343,105.4290,0,U,22626,999,79858,.11478949E-3,.1348E-4,0
SL-16 R/B,1993-059B,2026-07-08T22:42:41.583168,14.17251142,.00163178,70.9907,115.4183,18.1304,342.0398,0,U,22803,999,69671,-.51681369E-4,-.153E-5,0
ARIANE 40 R/B,1993-061H,2026-07-09T04:49:44.292576,14.32917022,.00094718,98.4808,256.5999,285.7966,74.2173,0,U,22830,999,71150,.56034893E-4,.11E-5,0
COSMOS 2278,1994-023A,2026-07-09T05:48:01.505376,14.14394142,.00099302,71.0534,280.7825,214.6545,145.3931,0,U,23087,999,66199,-.83819151E-4,-.208E-5,0
SL-16 R/B,1994-023B,2026-07-08T22:49:12.363456,14.15024143,.00015458,70.9977,176.2254,150.3353,209.7858,0,U,23088,999,66324,-.54380351E-4,-.153E-5,0
SL-16 R/B,1994-074B,2026-07-09T02:59:05.205984,14.79520997,.0006665,97.6985,215.9305,172.8784,231.6966,0,U,23343,999,70520,.43425618E-4,.276E-5,0
