COSMOS 2058             
1 20465U 90010A   26190.23820649  .00001606  00000+0  91435-4 0  9997
2 20465  82.4673 287.6085 0007880 275.4642  84.5689 15.12138882960608
SL-14 R/B               
1 20466U 90010B   26189.95187700  .00000272  00000+0  29996-4 0  9990
2 20466  82.5030 153.5050 0018172 259.4978 100.4189 14.83660547946466
SL-14 R/B               
1 20511U 90018B   26190.22147486  .00000282  00000+0  32342-4 0  9998
2 20511  82.5223 109.5139 0017412  55.2414 305.0437 14.82231639940584
HST                     
1 20580U 90037B   26189.72127744  .00004866  00000+0  15029-3 0  9997
2 20580  28.4736 293.3726 0001994  41.8079 318.2669 15.31013397791871
SL-16 R/B               
1 20625U 90046B   26190.00383485 -.00000050  00000+0 -14185-5 0  9993
2 20625  70.9983  43.1285 0012487 125.2782 234.9511 14.15022786865555
COSMOS 2084             
1 20663U 90055A   26190.23639253  .00001201  00000+0  95316-4 0  9998
2 20663  62.7905 280.8289 0007369 312.2608  47.7867 15.06210349954628
SL-6 R/B(2)             
1 20666U 90055D   26190.05611130  .00001205  00000+0  99644-4 0  9997
2 20666  62.7798 200.9544 0044152   8.1644 352.0164 15.04071660956443
SL-8 R/B                
1 20775U 90078B   26189.91119699  .00016326  00000+0  46255-3 0  9998
2 20775  82.9023 141.9992 0344547 324.9410  32.9553 14.93408823827367
SL-8 R/B                
1 21088U 91006B   26190.16330024  .00000057  00000+0  41523-4 0  9992
2 21088  82.9417  79.6847 0023696  56.5740  97.0694 13.77508388780792
OKEAN-3                 
1 21397U 91039A   26190.33976556  .00001421  00000+0  97009-4 0  9992
2 21397  82.5137 218.8978 0011997 276.7228  83.2633 15.05416037883336
COSMOS 2151             
1 21422U 91042A   26190.33336204  .00001349  00000+0  10481-3 0  9992
2 21422  82.4976 326.3074 0012547  15.2376 344.9223 15.00503417881434
SL-14 R/B               
1 21423U 91042B   26190.23268729  .00000240  00000+0  27279-4 0  9991
2 21423  82.4936 106.2231 0016449 196.7222 163.3452 14.81916022871075
ERS-1                   
1 21574U 91050A   26190.05963135  .00000155  00000+0  64266-4 0  9992
2 21574  98.7795 211.2917 0031513 200.0921 159.9027 14.39530153833197
ARIANE 40 R/B           
1 21610U 91050F   26189.75318209  .00000185  00000+0  67635-4 0  9990
2 21610  98.1864 237.3288 0004370  75.3560 284.8115 14.42969614836452
INTERCOSMOS 25          
1 21819U 91086A   26190.14997343  .00001125  00000+0  22159-3 0  9993
2 21819  82.6018 236.5193 1484276 214.9742 134.4497 12.12233409511408
SL-8 R/B                
1 21876U 92008B   26189.93408713  .00000128  00000+0  11598-3 0  9991
2 21876  82.9265 177.6181 0035310 153.7197 234.2118 13.75982387726092
SL-8 R/B                
1 21938U 92020B   26190.11263219  .00000022  00000+0  76121-5 0  9994
2 21938  82.9291  63.5702 0028231 321.2174 191.9018 13.75550322717822
USA 81                  
1 21949U 92023A   26190.06995626  .00000105  00000+0  31475-4 0  9991
2 21949  85.0057  61.3757 0002247  67.3828 292.7602 14.32403814112169
COSMOS 2219             
1 22219U 92076A   26190.26063133 -.00000086  00000+0 -20472-4 0  9996
2 22219  71.0616 123.9288 0017874   6.9103 353.2263 14.14110057735562
SL-16 R/B               
1 22220U 92076B   26190.33041194  .00000170  00000+0  10869-3 0  9999
2 22220  71.0008 292.1355 0014979 269.5783 106.8493 14.16874801739069
COSMOS 2221             
1 22236U 92080A   26189.93593368  .00001189  00000+0  10189-3 0  9996
2 22236  82.5039 162.9268 0015317 139.4809 220.7557 14.96592175798921
SL-16 R/B               
1 22285U 92093B   26190.22063637 -.00000042  00000+0  26417-5 0  9990
2 22285  71.0224 109.1374 0002608 148.1428 211.9853 14.15467051730357
COSMOS 2228             
1 22286U 92094A   26190.26997520  .00001319  00000+0  11021-3 0  9993
2 22286  82.5190 120.8912 0016047 251.0026 108.9458 14.97664104794258
SL-16 R/B               
1 22566U 93016B   26189.77896026 -.00000134  00000+0 -44164-4 0  9993
2 22566  71.0084 320.8564 0009055 149.5406 210.6245 14.15311610719302
COSMOS 2242             
1 22626U 93024A   26190.30640278  .00001348  00000+0  11479-3 0  9994
2 22626  82.5195 150.3803 0014387 254.5343 105.4290 14.96973477798584
SL-16 R/B               
1 22803U 93059B   26189.94631462 -.00000153  00000+0 -51681-4 0  9997
2 22803  70.9907 115.4183 0016317  18.1304 342.0398 14.17251142696713
ARIANE 40 R/B           
1 22830U 93061H   26190.20120709  .00000110  00000+0  56035-4 0  9997
2 22830  98.4808 256.5999 0009471 285.7966  74.2173 14.32917022711502
COSMOS 2278             
1 23087U 94023A   26190.24168409 -.00000208  00000+0 -83819-4 0  9994
2 23087  71.0534 280.7825 0009930 214.6545 145.3931 14.14394142661992
SL-16 R/B               
1 23088U 94023B   26189.95083754 -.00000153  00000+0 -54380-4 0  9990
2 23088  70.9977 176.2254 0001545 150.3353 209.7858 14.15024143663249
SL-16 R/B               
1 23343U 94074B   26190.12436581  .00000276  00000+0  43426-4 0  9994
2 23343  97.6985 215.9305 0006665 172.8784 231.6966 14.79520997705206
